[{"OBJECT_NAME":"YAOGAN-2","OBJECT_ID":"2007-019A","EPOCH":"2026-03-09T14:35:50.831808","MEAN_MOTION":14.82510137,"ECCENTRICITY":0.001955,"INCLINATION":98.2784,"RA_OF_ASC_NODE":285.8374,"ARG_OF_PERICENTER":233.2135,"MEAN_ANOMALY":126.7283,"EPHEMERIS_TYPE":0,"CLASSIFICATION_TYPE":"U","NORAD_CAT_ID":31490,"ELEMENT_SET_NO":999,"REV_AT_EPOCH":1286,"BSTAR":0.00014435,"MEAN_MOTION_DOT":1.104e-5,"MEAN_MOTION_DDOT":0},{"OBJECT_NAME":"CZ-6A DEB","OBJECT_ID":"2022-151MY","EPOCH":"2026-03-09T19:34:42.650688","MEAN_MOTION":14.82668784,"ECCENTRICITY":0.00502544,"INCLINATION":98.8906,"RA_OF_ASC_NODE":177.2931,"ARG_OF_PERICENTER":195.0973,"MEAN_ANOMALY":164.8741,"EPHEMERIS_TYPE":0,"CLASSIFICATION_TYPE":"U","NORAD_CAT_ID":54598,"ELEMENT_SET_NO":999,"REV_AT_EPOCH":17593,"BSTAR":0.0051036329,"MEAN_MOTION_DOT":0.00042239,"MEAN_MOTION_DDOT":0}]
